0 DELTA 1 DEB
1 08980U 75004BN  13281.83690721  .00000579  00000-0  13087-3 0  2954
2 08980 097.7914 269.0937 0045066 211.0045 148.8494 14.59033718990517
0 DELTA 1 DEB
1 08980U 75004BN  13283.89430336  .00000590  00000-0  13308-3 0  2966
2 08980 097.7913 271.0249 0045220 204.4653 155.4402 14.59039428990818
0 DELTA 1 DEB
1 08980U 75004BN  13285.95169397  .00000618  00000-0  13894-3 0  2973
2 08980 097.7914 272.9561 0045382 197.9688 161.9911 14.59041646991115
0 DELTA 1 DEB
1 08980U 75004BN  13288.00908110  .00001042  00000-0  22791-3 0  2985
2 08980 097.7916 274.8871 0045544 191.4851 168.5315 14.59045895991417
0 DELTA 1 DEB
1 08980U 75004BN  13290.13504147  .00000787  00000-0  17441-3 0  2996
2 08980 097.7920 276.8823 0045723 184.7820 175.2950 14.59050012991722
0 DELTA 1 DEB
1 08980U 75004BN  13292.19241645  .00000855  00000-0  18845-3 0  3003
2 08980 097.7925 278.8132 0045889 178.3421 181.7940 14.59052784992024
0 DELTA 1 DEB
1 08980U 75004BN  13294.52410294  .00000912  00000-0  20053-3 0  3019
2 08980 097.7928 281.0019 0046077 171.1037 189.0991 14.59057757992360
